GSAT0217 (GALILEO 21)
1 43057U 17079C   25333.50325400  .00000027  00000+0  00000+0 0  9995
2 43057  55.1326 227.0006 0002756 340.6935  19.3693  1.70473704 49580